CIC_OEM_VERS = 2.0
CREATION_DATE = 2025-03-17T15:11:36.667135
ORIGINATOR = ISAE-SUPAERO


META_START
OBJECT_NAME = RED1
OBJECT_ID = RED1
CENTER_NAME = Earth
REF_FRAME = EME2000
TIME_SYSTEM = UTC
START_TIME = 2025-03-17T00:00:00.000
USEABLE_START_TIME = 2025-03-17T00:00:00.000
USEABLE_STOP_TIME = 2025-03-17T23:55:00.000
STOP_TIME = 2025-03-17T23:55:00.000
INTERPOLATION = lagrange
INTERPOLATION_DEGREE = 5
META_STOP



60751 0.0 4409.9049 1500.7023000000002 5130.1195 -4.721609099999999 -3.232701 5.0035459
60751 420.0 2039.4959 34.863784 6626.3422 -6.366478 -3.6245002 1.997818
60751 840.0 -752.14821 -1438.4566000000002 6752.1321 -6.6937841 -3.2686306 -1.4064579000000001
60751 1260.0 -3389.8414 -2616.6884 5488.0461 -5.6487431 -2.2451129 -4.5053219
60751 1680.0 -5335.4596 -3260.5119 3099.5153999999998 -3.4572199 -0.76874788 -6.6691180999999995
60751 2100.0 -6196.5212 -3241.4479 78.64375 -0.5746949600000001 0.85661258 -7.4663615000000005
60751 2520.0 -5803.853400000001 -2566.4575 -2958.6748 2.4101025 2.3013103999999998 -6.748667800000001
60751 2940.0 -4242.0171 -1374.3843000000002 -5398.8838 4.8987171 3.2776140999999996 -4.6730748
60751 3360.0 -1828.039 93.800984 -6751.8859 6.4001719 3.5943308000000003 -1.6591222
60751 3780.0 953.0849000000001 1542.9811000000002 -6744.1698 6.6166157000000005 3.1879904000000003 1.6980535
60751 4200.0 3541.0585 2680.217 -5370.867200000001 5.4929023 2.1324972 4.7327445
60751 4620.0 5407.223599999999 3271.376 -2901.5185 3.2354107 0.63122656 6.8239429000000005
60751 5040.0 6162.0284 3190.3084 164.71703 0.29245102000000006 -1.0123731 7.5210963
60751 5460.0 5642.3949 2449.485 3196.2901 -2.7244787 -2.4537241 6.6593272
60751 5880.0 3953.0819 1200.8825 5563.4375 -5.1772358999999994 -3.3868641 4.414249300000001
60751 6300.0 1445.5176000000001 -296.3735 6776.4400000000005 -6.5528096 -3.6175309 1.2625655
60751 6720.0 -1360.4353 -1732.8399 6589.4495 -6.5750455 -3.1035259 -2.1344483
60751 7140.0 -3887.9071000000004 -2814.198 5047.5774 -5.252198000000001 -1.9571405 -5.0773041
60751 7560.0 -5622.3820000000005 -3321.409 2472.5674 -2.8660488 -0.41755032999999997 -6.9701319999999996
60751 7980.0 -6215.1372 -3154.0524 -606.44466 0.08961326200000001 1.1994012 -7.437990200000001
60751 8400.0 -5551.6589 -2349.1062 -3563.0402000000004 3.0134491 2.5669138 -6.3996774
60751 8820.0 -3770.66 -1071.2345 -5800.961 5.3215686 3.413801 -4.0752702
60751 9240.0 -1232.355 421.79156 -6870.7947 6.5593552 3.5743882 -0.93105793
60751 9660.0 1553.467 1829.7713 -6554.867 6.478893200000001 3.0147500000000003 2.412919
60751 10080.0 4024.3329 2867.26 -4909.5696 5.0816004999999995 1.8384744000000002 5.2903885
60751 10500.0 5673.298400000001 3319.3979 -2260.4447999999998 2.6300578 0.27469954 7.1066033
60751 10920.0 6154.2766 3088.2842 854.3960000000001 -0.38292729000000003 -1.3575213000000002 7.4649355
60751 11340.0 5361.3042000000005 2217.9336000000003 3791.4849 -3.3271747 -2.7141924 6.2735202
60751 11760.0 3457.0092000000004 887.8101800000001 5940.5973 -5.5800934 -3.5077555000000005 3.7806597
60751 12180.0 837.6385600000001 -626.07746 6858.379400000001 -6.6733104 -3.5746238 0.51526193
60751 12600.0 -1954.6431000000002 -2011.3590000000002 6360.777 -6.391221300000001 -2.9072772000000002 -2.8404509
60751 13020.0 -4347.058599999999 -2984.8896 4556.7266 -4.8044918 -1.649023 -5.598307200000001
60751 13440.0 -5853.6872 -3350.0774 1820.9396000000002 -2.2478192 -0.061149702 -7.2019016
60751 13860.0 -6172.8258 -3035.5888 -1285.7552 0.7517957000000001 1.5316104000000001 -7.3363646000000005
60751 14280.0 -5245.4875999999995 -2108.0605 -4132.618100000001 3.5864666 2.8086115 -5.988080500000001
60751 14700.0 -3262.9453 -756.4158000000001 -6146.3445 5.6922755 3.5175823999999998 -3.4374065000000003
60751 15120.0 -625.09213 747.1204 -6922.3138 6.6545679 3.5196967 -0.19296247
60751 15540.0 2138.1634 2099.9711 -6300.7786 6.2774064 2.8110257 3.1054220999999997
60751 15960.0 4467.3922999999995 3026.9087999999997 -4399.2034 4.6193352999999995 1.5244604 5.7965489
60751 16380.0 5882.4973 3334.7115 -1596.489 1.9978504000000001 -0.086623662 7.3181495000000005
60751 16800.0 6084.7251 2955.0709 1535.5284 -1.0543395 -1.6907089000000002 7.3330437
60751 17220.0 5026.587 1963.3711 4348.316900000001 -3.8956634 -2.9484133000000003 5.8241452
60751 17640.0 2926.7816000000003 564.7798100000001 6257.746400000001 -5.9262265 -3.5939285 3.1094154
60751 18060.0 221.98999 -950.71596 6871.317 -6.7270582 -3.4961405 -0.2364815
60751 18480.0 -2528.9038 -2270.9855000000002 6068.360900000001 -6.144378700000001 -2.6818513 -3.5175205000000003
60751 18900.0 -4762.8365 -3126.8317 4020.2892 -4.3101425 -1.3239295 -6.0633398
60751 19320.0 -6027.1703 -3346.0525000000002 1150.9421000000002 -1.6085834 0.29676665 -7.3623128
60751 19740.0 -6070.0469 -2887.1025 -1952.7779 1.4054708 1.8498758 -7.162615799999999
60751 20160.0 -4888.3240000000005 -1845.6073999999999 -4661.9847 4.1236993 3.0239396000000003 -5.5178258
60751 20580.0 -2723.7952 -432.99423 -6431.7341 6.0071864999999995 3.5877512 -2.7655061
60751 21000.0 -12.207268000000001 1066.5198 -6905.951599999999 6.684628200000001 3.4305347999999998 0.5480030100000001
60751 21420.0 2701.3066000000003 2350.7542000000003 -5984.4438 6.0137778 2.5786217000000002 3.7684998000000003
60751 21840.0 4865.6454 3157.3789 -3845.0271000000002 4.1106112999999995 1.1935780999999999 6.2456469
60751 22260.0 6032.5955 3317.007 -916.63486 1.3453904 -0.4489304 7.4560743
60751 22680.0 5954.1065 2791.959 2200.873 -1.7145830000000002 -2.0082807000000003 7.1267519
60751 23100.0 4641.834400000001 1688.4353 4860.8955000000005 -4.423799600000001 -3.1537734 5.316189400000001
60751 23520.0 2368.0859 235.16307 6511.6678 -6.2120066 -3.6445692 2.4079459
60751 23940.0 -394.8206 -1266.9226 6815.3478 -6.7135489 -3.3830043 -0.98449627
60751 24360.0 -3077.0753 -2509.0684 5715.6128 -5.837236700000001 -2.429692 -4.1582329
60751 24780.0 -5130.8693 -3238.6387000000004 3444.3834 -3.7747432 -0.98533107 -6.4671823999999996
60751 25200.0 -6141.2205 -3309.4877 470.19049 -0.9556167400000001 0.6524790400000001 -7.449604900000001
60751 25620.0 -5908.2837 -2710.2477000000003 -2599.9422999999997 2.043425 2.1508350000000003 -6.9186745
60751 26040.0 -4484.426 -1564.6448 -5145.1056 4.6193846999999995 3.2104592 -4.9941762
60751 26460.0 -2159.3781000000004 -104.58686999999999 -6653.8161 6.2631053 3.623395 -2.0670184
60751 26880.0 599.43453 1376.3523 -6821.707 6.649453 3.307711 1.2837791
60751 27300.0 3236.6575000000003 2579.1578 -5609.1184 5.6910358 2.3198864 4.3949385
60751 27720.0 5214.7109 3256.9495 -3252.8983 3.5611129000000004 0.8492925100000001 6.6328256
60751 28140.0 6121.9546 3266.1296 -228.08862 0.67988747 -0.80832949 7.5189596000000005
60751 28560.0 5763.876 2600.3698 2843.4528 -2.3564309 -2.3068093 6.8485756
60751 28980.0 4211.2188 1395.7066000000002 5324.0125 -4.906132400000001 -3.3282705999999997 4.7553187
60751 29400.0 1786.8116000000002 -97.952258 6699.951099999999 -6.4347791 -3.6592214 1.683587
60751 29820.0 -1006.4225 -1571.7329 6691.3150000000005 -6.633253 -3.2362593000000004 -1.7210710999999999
60751 30240.0 -3593.6504 -2723.3592000000003 5306.4219 -5.4734056 -2.1531035000000003 -4.756101
60751 30660.0 -5447.6674 -3319.2031 2835.0787 -3.2040413 -0.63627219 -6.8061091
60751 31080.0 -6194.9552 -3240.6373 -214.35281 -0.29542603 1.0026174 -7.4632851
60751 31500.0 -5689.3745 -2506.6174 -3220.7989 2.6594277 2.4316653 -6.607416000000001
60751 31920.0 -4037.9452 -1267.6938 -5577.3060000000005 5.0689212 3.3666247 -4.4225185
60751 32340.0 -1575.2953 225.92048000000003 -6810.5035 6.4578126000000005 3.6243125000000003 -1.3486881000000002
60751 32760.0 1203.8534 1673.9174 -6670.412700000001 6.5494733 3.1522913 2.0073794
60751 33180.0 3738.9924 2783.1795 -5178.429099999999 5.3123197 2.0370542 4.9786191
60751 33600.0 5511.2082 3324.7722000000003 -2628.6167 2.9762802 0.49473059999999996 6.954119700000001
60751 34020.0 6149.813700000001 3182.6178 462.32474 0.0081726078 -1.1615174 7.5061042
60751 34440.0 5516.1206 2382.0813 3456.9137 -2.9734744 -2.5837752000000003 6.501358000000001
60751 34860.0 3739.1597 1087.814 5733.1281 -5.338176499999999 -3.4704374 4.1471572
60751 35280.0 1188.6724 -431.61308 6820.7735 -6.5928676 -3.6377929 0.9433352
60751 35700.0 -1607.0558 -1862.4683 6500.3694000000005 -6.4875 -3.0571891 -2.4394124
60751 36120.0 -4073.9743 -2911.9527000000003 4844.4671 -5.0566438 -1.8544323999999999 -5.306084
60751 36540.0 -5710.4962000000005 -3367.7678 2197.6941 -2.6033307 -0.27977837 -7.0774221
60751 36960.0 -6188.0712 -3140.0128 -896.83293 0.36595707 1.3443356000000002 -7.4035861999999995
60751 37380.0 -5415.4157000000005 -2277.7799 -3810.1642 3.2482454 2.6901858 -6.2317098
60751 37800.0 -3552.8650000000002 -957.0641 -5955.046200000001 5.4686543 3.4911293000000003 -3.8076741000000003
60751 38220.0 -976.64523 555.8918199999999 -6900.554400000001 6.589719199999999 3.5902890000000003 -0.6164893
60751 38640.0 1795.7649 1956.7346000000002 -6453.4197 6.3854272000000005 2.9652374 2.712587
60751 39060.0 4203.847 2960.9915 -4696.1963 4.8808081 1.7322648 5.5141704
60751 39480.0 5752.4941 3360.1273 -1977.8444 2.3613983 0.13292149 7.2062795
60751 39900.0 6115.9995 3067.1177000000002 1148.2392 -0.66359469 -1.5051569 7.4175541
60751 40320.0 5213.1668 2139.0825 4035.5949 -3.5601553 -2.8362767 6.0883582
60751 40740.0 3229.9743 767.7070500000001 6084.5082 -5.7161874 -3.578692 3.4974251
60751 41160.0 579.01812 -762.54908 6873.050200000001 -6.6851163 -3.5803426 0.19397885
60751 41580.0 -2191.4873 -2136.2237999999998 6244.2182 -6.277852 -2.8474028 -3.1332060000000004
60751 42000.0 -4513.9288 -3072.8871000000004 4333.8197 -4.5906392 -1.5364711 -5.8033597
60751 42420.0 -5917.1652 -3383.6693 1537.828 -1.9779134 0.080890924 -7.2788429
60751 42840.0 -6120.6954000000005 -3008.3142000000003 -1571.3041 1.0229936 1.6744734000000001 -7.271086100000001
60751 43260.0 -5088.7677 -2025.6468 -4362.9037 3.8049502000000004 2.9239041 -5.7947923
